1 29155U 06018A   11003.10418259 -.00000252  00000-0  10000-3 0  4216
2 29155 000.3450 078.7785 0002054 342.6994 003.4943 01.00274737 16928